CONNECTA IOT-4          
1 60524U 24149BJ  26194.02423627  .00015132  00000+0  34359-3 0  9993
2 60524  97.3802 278.7160 0005828 182.0354 178.0871 15.43114556106313
ORESAT0.5               
1 60525U 24149BK  26193.75670703  .00015289  00000+0  31439-3 0  9991
2 60525  97.3729 280.1642 0006019 172.7669 187.3668 15.46046803106423
DEIMOS                  
1 60526U 24149BL  26193.80352292  .00014813  00000+0  31430-3 0  9991
2 60526  97.3787 280.3384 0005731 176.8884 183.2401 15.45135168106407
CUAVA-2                 
1 60527U 24149BM  26193.74403433  .00008738  00000+0  24588-3 0  9994
2 60527  97.3730 275.3153 0006629 188.2996 171.8139 15.36698332106095
ERNST                   
1 60528U 24149BN  26192.02397410  .00008478  00000+0  21574-3 0  9995
2 60528  97.3807 275.9318 0005787 194.1304 165.9781 15.39824000105949
TORO                    
1 60530U 24149BQ  26193.98298031  .00000498  00000+0  48872-4 0  9998
2 60530  97.6781 268.1695 0001213  93.8681 266.2680 14.96514274103819
HYPSO-2                 
1 60531U 24149BR  26193.96976233  .00001981  00000+0  16868-3 0  9991
2 60531  97.6844 269.8551 0001935 100.8056 259.3385 14.98928139103912
LEMU NGE                
1 60532U 24149BS  26193.75279091  .00001545  00000+0  14630-3 0  9998
2 60532  97.6835 268.1960 0000630  75.6866 284.4425 14.95054104103775
LEMUR-2-STELLA          
1 60533U 24149BT  26193.75801112  .00007469  00000+0  43460-3 0  9998
2 60533  97.6742 276.3329 0001212 111.1523 248.9837 15.12343479104360
SATELIOT_2              
1 60534U 24149BU  26194.03806060  .00001034  00000+0  96172-4 0  9999
2 60534  97.6825 268.5228 0001736  78.3222 281.8194 14.96455972103831
NIGHTJAR                
1 60535U 24149BV  26194.15749275  .00002322  00000+0  19565-3 0  9998
2 60535  97.6836 270.4994 0002559 100.7592 259.3919 14.99160551146763
LEMUR-2-MARHISYAM       
1 60536U 24149BW  26194.01272817  .00006657  00000+0  39418-3 0  9991
2 60536  97.6885 277.0636 0002716  73.2664 286.8864 15.11754239104386
SATELIOT_4              
1 60537U 24149BX  26193.70938118  .00000553  00000+0  53333-4 0  9992
2 60537  97.6735 267.7102 0001279   3.3639 356.7591 14.96755981103799
PICO-02A021             
1 60538U 24149BY  26189.73169079  .00002640  00000+0  19831-3 0  9996
2 60538  97.6747 268.3815 0003200 317.3767  42.7209 15.03460922102971
ICEYE-X43               
1 60539U 24149BZ  26193.78305587  .00001196  00000+0  10146-3 0  9998
2 60539  97.6811 270.4043 0006570 357.7584   2.3608 14.99783872103959
HAWK-10A                
1 60540U 24149CA  26193.77767860  .00000558  00000+0  54061-4 0  9991
2 60540  97.6892 269.2496 0003385  14.2777 345.8539 14.96590356103811
UMBRA-09                
1 60541U 24149CB  26193.83410118  .00009959  00000+0  48173-3 0  9990
2 60541  97.6981 281.4906 0001820 204.7083 155.4064 15.18803617104610
QPS-SAR-8 (AMATERU-IV)  
1 60542U 24149CC  26193.80366391  .00002750  00000+0  20141-3 0  9998
2 60542  97.6668 272.7418 0004104  51.9220 308.2376 15.04385447104128
ARCTIC WEATHER SATELLITE
1 60543U 24149CD  26193.74335384  .00000543  00000+0  62163-4 0  9999
2 60543  97.6793 263.4773 0003024  54.6107 305.5393 14.89801613103109
CAPELLA-15 (ACADIA-5)   
1 60544U 24149CE  26193.26428250  .00001941  00000+0  19497-3 0  9996
2 60544  97.6768 265.5399 0003805 352.3525   7.7636 14.92404893103595
HAWK-10B                
1 60545U 24149CF  26193.77753976  .00000471  00000+0  46372-4 0  9999
2 60545  97.6811 268.5786 0005719  23.3723 336.7757 14.96589458103818
ICEYE-X39               
1 60546U 24149CG  26193.76006051  .00002518  00000+0  20684-3 0  9995
2 60546  97.6785 270.4379 0006992  53.3845 306.8020 15.00062518103956
UMBRA-10                
1 60547U 24149CH  26193.76776418  .00011492  00000+0  55518-3 0  9992
2 60547  97.6986 281.4536 0001520 166.8110 193.3163 15.18808032104613
ICEYE-X33               
1 60548U 24149CJ  26194.16976218  .00002776  00000+0  22290-3 0  9994
2 60548  97.7342 273.1806 0002020  79.7590 280.3862 15.00875982104105
ICEYE-X40               
1 60549U 24149CK  26193.15130112  .00001297  00000+0  11459-3 0  9990
2 60549  97.6800 269.2441 0003727  13.8478 346.2846 14.98055622103812
SATELIOT_1              
1 60550U 24149CL  26193.74148434  .00001022  00000+0  91132-4 0  9996
2 60550  97.6733 269.2147 0005927 359.4020   0.7194 14.98156912103898
BRO-14                  
1 60551U 24149CM  26193.74242294  .00000702  00000+0  67291-4 0  9999
2 60551  97.6861 269.0607 0006934  24.7514 335.4039 14.96231446103811
SATELIOT_3              
1 60552U 24149CN  26193.78419575  .00000537  00000+0  50221-4 0  9993
2 60552  97.6823 270.0724 0005320  15.1822 344.9560 14.98161521103919
BRO-15                  
1 60553U 24149CP  26190.44813664  .00000727  00000+0  69494-4 0  9994
2 60553  97.6798 265.4070 0008525  23.7668 336.3946 14.96220766103330
UM5-RIBAT               
1 60554U 24149CQ  26193.80193905  .00001483  00000+0  12016-3 0  9994
2 60554  97.6612 271.2552 0000943   6.1403 353.9832 15.01212897104034
